STARLINK-37531          
1 69136U 26110N   26160.58337963 -.02143634  00000+0 -28229-1 0  9992
2 69136  97.2844 356.9967 0001960  60.8542  37.3010 15.62038777  4438
STARLINK-37662          
1 69137U 26110P   26160.58337963 -.02335056  00000+0 -43131-1 0  9993
2 69137  97.2842 356.9519 0001289  79.9240 275.7469 15.52757658  4431
STARLINK-37658          
1 69138U 26110Q   26160.58337963  .00013494  00000+0  24953-3 0  9992
2 69138  97.2915 356.8766 0000888 110.9253  72.1060 15.49168915  4434
STARLINK-37659          
1 69139U 26110R   26160.58337963  .00025305  00000+0  46564-3 0  9999
2 69139  97.2851 356.8590 0001537  88.3529  51.8941 15.49176839  4431
STARLINK-37653          
1 69140U 26110S   26160.58337963  .00016330  00000+0  30141-3 0  9993
2 69140  97.2854 356.8529 0001235  86.0888  40.4171 15.49178468  4435
STARLINK-37654          
1 69141U 26110T   26160.58337963 -.02954101  00000+0 -56068-1 0  9999
2 69141  97.2839 356.9579 0001700  54.7704 311.9592 15.52304851  4435
STARLINK-37655          
1 69142U 26110U   26160.58337963 -.00810982  00000+0 -11263-1 0  9994
2 69142  97.2844 356.9872 0000950  67.7894  10.4020 15.59235274  4434
STARLINK-37636          
1 69143U 26110V   26160.58337963 -.02600877  00000+0 -31401-1 0  9993
2 69143  97.2843 357.0417 0002035  90.7005 120.0082 15.64361276  4431
STARLINK-37638          
1 69144U 26110W   26160.58337963 -.02627678  00000+0 -31215-1 0  9995
2 69144  97.2846 357.0459 0002064  95.2814 125.4029 15.64806977  4433
STARLINK-37657          
1 69145U 26110X   26160.58337963 -.01726127  00000+0 -33029-1 0  9999
2 69145  97.2847 356.9569 0001647  50.5051 315.6975 15.51272535  4489
STARLINK-37639          
1 69146U 26110Y   26160.58337963 -.02587492  00000+0 -29925-1 0  9991
2 69146  97.2846 357.0519 0001921  91.2540 142.5450 15.65415835  4488
STARLINK-37661          
1 69147U 26110Z   26160.58337963  .00008231  00000+0  15280-3 0  9998
2 69147  97.2853 356.9046 0001909  60.1675 188.2748 15.49195699  4482
STARLINK-37395          
1 69148U 26111A   26160.55764404  .00243651  00000+0  11984-2 0  9994
2 69148  53.1586 189.8974 0000841 118.9718 241.1389 15.80964750  3053
STARLINK-37346          
1 69149U 26111B   26159.79798346  .00131475  00000+0  66053-3 0  9999
2 69149  53.1585 193.6931 0000916  41.1598 318.9494 15.80841008  2931
STARLINK-37332          
1 69150U 26111C   26160.58337963 -.02532254  00000+0 -22694-1 0  9999
2 69150  53.1595 189.8062 0001323  58.2816  69.9192 15.70984141  4329
STARLINK-37297          
1 69151U 26111D   26160.55638362  .00241673  00000+0  11890-2 0  9999
2 69151  53.1588 189.8890 0000790 105.2759 254.8352 15.80963403  3058
STARLINK-37317          
1 69152U 26111E   26160.49120395  .00139601  00000+0  69801-3 0  9998
2 69152  53.1582 190.1921 0001018  71.8857 288.2276 15.80917741  3043
STARLINK-37374          
1 69153U 26111F   26160.58337963 -.02488559  00000+0 -27316-1 0  9996
2 69153  53.1597 189.8623 0001316  52.1137  48.7132 15.66043650  4323
STARLINK-37235          
1 69154U 26111G   26160.58337963 -.00977794  00000+0 -12820-1 0  9993
2 69154  53.1595 190.0312 0000702  57.9638 320.0843 15.60673345  4327
STARLINK-37329          
1 69155U 26111H   26160.49165502  .00140163  00000+0  70080-3 0  9996
2 69155  53.1587 190.1952 0000991  92.6953 267.4183 15.80916362  3046
STARLINK-37345          
1 69156U 26111J   26160.49020878  .00162387  00000+0  80921-3 0  9990
2 69156  53.1586 190.1853 0001035  78.5975 281.5164 15.80918163  3040
STARLINK-37353          
1 69157U 26111K   26160.48999130  .00162109  00000+0  80760-3 0  9999
2 69157  53.1586 190.1840 0000898 105.2795 254.8327 15.80924915  3047
STARLINK-37363          
1 69158U 26111L   26160.29813134  .02001975  00000+0  83303-2 0  9998
2 69158  53.1583 191.1200 0004037 225.5728 134.4965 15.82046001  3018
STARLINK-37343          
1 69159U 26111M   26160.58337963 -.01289911  00000+0 -14615-1 0  9990
2 69159  53.1596 189.8603 0001084  32.7462  68.3912 15.64699748  4320
STARLINK-37328          
1 69160U 26111N   26160.55100764  .00281545  00000+0  13776-2 0  9996
2 69160  53.1586 189.8515 0001570  83.7961 276.3241 15.80973992  3052
STARLINK-37311          
1 69161U 26111P   26160.58337963  .00008540  00000+0  53003-4 0  9994
2 69161  53.1591 189.7409 0000796  74.6146  85.6952 15.78042858  4329
STARLINK-36286          
1 69162U 26111Q   26160.58337963  .00005027  00000+0  32800-4 0  9994
2 69162  53.1590 189.7308 0000939  50.4047 114.8276 15.78041262  4320
STARLINK-37196          
1 69163U 26111R   26160.55706140  .00188109  00000+0  10604-2 0  9998
2 69163  53.1590 189.8922 0001592 130.8558 229.2601 15.78120301  3054
STARLINK-36288          
1 69164U 26111S   26160.55625245  .00227083  00000+0  12727-2 0  9998
2 69164  53.1591 189.8858 0000939  87.4414 272.6715 15.78133196  3050
STARLINK-37445          
1 69165U 26111T   26160.58337963  .00003273  00000+0  22698-4 0  9992
2 69165  53.1588 189.7159 0000977  68.7792 103.3811 15.78042631  4324
