OBJECT_NAME,OBJECT_ID,EPOCH,MEAN_MOTION,ECCENTRICITY,INCLINATION,RA_OF_ASC_NODE,ARG_OF_PERICENTER,MEAN_ANOMALY,EPHEMERIS_TYPE,CLASSIFICATION_TYPE,NORAD_CAT_ID,ELEMENT_SET_NO,REV_AT_EPOCH,BSTAR,MEAN_MOTION_DOT,MEAN_MOTION_DDOT
STARLINK-37531,2026-110N,2026-06-09T14:00:04.000032,15.62038777,.00019604,97.2844,356.9967,60.8542,37.3010,0,U,69136,999,443,-.28229426E-1,-.2143634E-1,0
STARLINK-37662,2026-110P,2026-06-09T14:00:04.000032,15.52757658,.00012891,97.2842,356.9519,79.9240,275.7469,0,U,69137,999,443,-.43131202E-1,-.2335056E-1,0
STARLINK-37658,2026-110Q,2026-06-09T14:00:04.000032,15.49168915,.00008889,97.2915,356.8766,110.9253,72.1060,0,U,69138,999,443,.2495336E-3,.13494E-3,0
STARLINK-37659,2026-110R,2026-06-09T14:00:04.000032,15.49176839,.0001537,97.2851,356.8590,88.3529,51.8941,0,U,69139,999,443,.4656387E-3,.25305E-3,0
STARLINK-37653,2026-110S,2026-06-09T14:00:04.000032,15.49178468,.00012353,97.2854,356.8529,86.0888,40.4171,0,U,69140,999,443,.30141301E-3,.1633E-3,0
STARLINK-37654,2026-110T,2026-06-09T14:00:04.000032,15.52304851,.00017007,97.2839,356.9579,54.7704,311.9592,0,U,69141,999,443,-.56067659E-1,-.2954101E-1,0
STARLINK-37655,2026-110U,2026-06-09T14:00:04.000032,15.59235274,.000095,97.2844,356.9872,67.7894,10.4020,0,U,69142,999,443,-.11263255E-1,-.810982E-2,0
STARLINK-37636,2026-110V,2026-06-09T14:00:04.000032,15.64361276,.00020356,97.2843,357.0417,90.7005,120.0082,0,U,69143,999,443,-.3140051E-1,-.2600877E-1,0
STARLINK-37638,2026-110W,2026-06-09T14:00:04.000032,15.64806977,.00020649,97.2846,357.0459,95.2814,125.4029,0,U,69144,999,443,-.31214957E-1,-.2627678E-1,0
STARLINK-37657,2026-110X,2026-06-09T14:00:04.000032,15.51272535,.00016471,97.2847,356.9569,50.5051,315.6975,0,U,69145,999,448,-.33028911E-1,-.1726127E-1,0
STARLINK-37639,2026-110Y,2026-06-09T14:00:04.000032,15.65415835,.00019212,97.2846,357.0519,91.2540,142.5450,0,U,69146,999,448,-.29925375E-1,-.2587492E-1,0
STARLINK-37661,2026-110Z,2026-06-09T14:00:04.000032,15.49195699,.00019096,97.2853,356.9046,60.1675,188.2748,0,U,69147,999,448,.15280243E-3,.8231E-4,0
STARLINK-37395,2026-111A,2026-06-09T13:23:00.445056,15.80964750,.00008413,53.1586,189.8974,118.9718,241.1389,0,U,69148,999,305,.11984027E-2,.243651E-2,0
STARLINK-37346,2026-111B,2026-06-08T19:09:05.770944,15.80841008,.00009163,53.1585,193.6931,41.1598,318.9494,0,U,69149,999,293,.66052833E-3,.131475E-2,0
STARLINK-37332,2026-111C,2026-06-09T14:00:04.000032,15.70984141,.00013234,53.1595,189.8062,58.2816,69.9192,0,U,69150,999,432,-.22694483E-1,-.2532254E-1,0
STARLINK-37297,2026-111D,2026-06-09T13:21:11.544768,15.80963403,.00007909,53.1588,189.8890,105.2759,254.8352,0,U,69151,999,305,.1189049E-2,.241673E-2,0
STARLINK-37317,2026-111E,2026-06-09T11:47:20.021280,15.80917741,.00010187,53.1582,190.1921,71.8857,288.2276,0,U,69152,999,304,.69800734E-3,.139601E-2,0
STARLINK-37374,2026-111F,2026-06-09T14:00:04.000032,15.66043650,.00013169,53.1597,189.8623,52.1137,48.7132,0,U,69153,999,432,-.27316065E-1,-.2488559E-1,0
STARLINK-37235,2026-111G,2026-06-09T14:00:04.000032,15.60673345,.00007027,53.1595,190.0312,57.9638,320.0843,0,U,69154,999,432,-.1281957E-1,-.977794E-2,0
STARLINK-37329,2026-111H,2026-06-09T11:47:58.993728,15.80916362,.00009918,53.1587,190.1952,92.6953,267.4183,0,U,69155,999,304,.70080413E-3,.140163E-2,0
STARLINK-37345,2026-111J,2026-06-09T11:45:54.038592,15.80918163,.00010357,53.1586,190.1853,78.5975,281.5164,0,U,69156,999,304,.80920535E-3,.162387E-2,0
STARLINK-37353,2026-111K,2026-06-09T11:45:35.248320,15.80924915,.00008981,53.1586,190.1840,105.2795,254.8327,0,U,69157,999,304,.80760149E-3,.162109E-2,0
STARLINK-37363,2026-111L,2026-06-09T07:09:18.547776,15.82046001,.00040378,53.1583,191.1200,225.5728,134.4965,0,U,69158,999,301,.83303256E-2,.2001975E-1,0
STARLINK-37343,2026-111M,2026-06-09T14:00:04.000032,15.64699748,.00010848,53.1596,189.8603,32.7462,68.3912,0,U,69159,999,432,-.14615013E-1,-.1289911E-1,0
STARLINK-37328,2026-111N,2026-06-09T13:13:27.060096,15.80973992,.00015702,53.1586,189.8515,83.7961,276.3241,0,U,69160,999,305,.13775649E-2,.281545E-2,0
STARLINK-37311,2026-111P,2026-06-09T14:00:04.000032,15.78042858,.00007965,53.1591,189.7409,74.6146,85.6952,0,U,69161,999,432,.5300332E-4,.854E-4,0
STARLINK-36286,2026-111Q,2026-06-09T14:00:04.000032,15.78041262,.00009395,53.1590,189.7308,50.4047,114.8276,0,U,69162,999,432,.32800222E-4,.5027E-4,0
STARLINK-37196,2026-111R,2026-06-09T13:22:10.104960,15.78120301,.00015926,53.1590,189.8922,130.8558,229.2601,0,U,69163,999,305,.10604169E-2,.188109E-2,0
STARLINK-36288,2026-111S,2026-06-09T13:21:00.211680,15.78133196,.00009391,53.1591,189.8858,87.4414,272.6715,0,U,69164,999,305,.12727466E-2,.227083E-2,0
STARLINK-37445,2026-111T,2026-06-09T14:00:04.000032,15.78042631,.00009779,53.1588,189.7159,68.7792,103.3811,0,U,69165,999,432,.22697697E-4,.3273E-4,0
